<?xml version="1.0" encoding="UTF-8"?>
<kml xmlns="http://www.opengis.net/kml/2.2">
  <Document>
    <name>Ruta 22 Ley ojo de agua - Macro plaza</name>
    <description/>
    <Style id="icon-1899-0288D1-normal">
      <IconStyle>
        <color>ffd18802</color>
        <scale>1</scale>
        <Icon>
          <href>https://www.gstatic.com/mapspro/images/stock/503-wht-blank_maps.png</href>
        </Icon>
        <hotSpot x="32" xunits="pixels" y="64" yunits="insetPixels"/>
      </IconStyle>
      <LabelStyle>
        <scale>0</scale>
      </LabelStyle>
    </Style>
    <Style id="icon-1899-0288D1-highlight">
      <IconStyle>
        <color>ffd18802</color>
        <scale>1</scale>
        <Icon>
          <href>https://www.gstatic.com/mapspro/images/stock/503-wht-blank_maps.png</href>
        </Icon>
        <hotSpot x="32" xunits="pixels" y="64" yunits="insetPixels"/>
      </IconStyle>
      <LabelStyle>
        <scale>1</scale>
      </LabelStyle>
    </Style>
    <StyleMap id="icon-1899-0288D1">
      <Pair>
        <key>normal</key>
        <styleUrl>#icon-1899-0288D1-normal</styleUrl>
      </Pair>
      <Pair>
        <key>highlight</key>
        <styleUrl>#icon-1899-0288D1-highlight</styleUrl>
      </Pair>
    </StyleMap>
    <Style id="icon-1899-0288D1-nodesc-normal">
      <IconStyle>
        <color>ffd18802</color>
        <scale>1</scale>
        <Icon>
          <href>https://www.gstatic.com/mapspro/images/stock/503-wht-blank_maps.png</href>
        </Icon>
        <hotSpot x="32" xunits="pixels" y="64" yunits="insetPixels"/>
      </IconStyle>
      <LabelStyle>
        <scale>0</scale>
      </LabelStyle>
      <BalloonStyle>
        <text><![CDATA[<h3>$[name]</h3>]]></text>
      </BalloonStyle>
    </Style>
    <Style id="icon-1899-0288D1-nodesc-highlight">
      <IconStyle>
        <color>ffd18802</color>
        <scale>1</scale>
        <Icon>
          <href>https://www.gstatic.com/mapspro/images/stock/503-wht-blank_maps.png</href>
        </Icon>
        <hotSpot x="32" xunits="pixels" y="64" yunits="insetPixels"/>
      </IconStyle>
      <LabelStyle>
        <scale>1</scale>
      </LabelStyle>
      <BalloonStyle>
        <text><![CDATA[<h3>$[name]</h3>]]></text>
      </BalloonStyle>
    </Style>
    <StyleMap id="icon-1899-0288D1-nodesc">
      <Pair>
        <key>normal</key>
        <styleUrl>#icon-1899-0288D1-nodesc-normal</styleUrl>
      </Pair>
      <Pair>
        <key>highlight</key>
        <styleUrl>#icon-1899-0288D1-nodesc-highlight</styleUrl>
      </Pair>
    </StyleMap>
    <Style id="line-097138-4704-nodesc-normal">
      <LineStyle>
        <color>ff387109</color>
        <width>4.704</width>
      </LineStyle>
      <BalloonStyle>
        <text><![CDATA[<h3>$[name]</h3>]]></text>
      </BalloonStyle>
    </Style>
    <Style id="line-097138-4704-nodesc-highlight">
      <LineStyle>
        <color>ff387109</color>
        <width>7.056</width>
      </LineStyle>
      <BalloonStyle>
        <text><![CDATA[<h3>$[name]</h3>]]></text>
      </BalloonStyle>
    </Style>
    <StyleMap id="line-097138-4704-nodesc">
      <Pair>
        <key>normal</key>
        <styleUrl>#line-097138-4704-nodesc-normal</styleUrl>
      </Pair>
      <Pair>
        <key>highlight</key>
        <styleUrl>#line-097138-4704-nodesc-highlight</styleUrl>
      </Pair>
    </StyleMap>
    <Style id="line-A52714-4681-nodesc-normal">
      <LineStyle>
        <color>ff1427a5</color>
        <width>4.681</width>
      </LineStyle>
      <BalloonStyle>
        <text><![CDATA[<h3>$[name]</h3>]]></text>
      </BalloonStyle>
    </Style>
    <Style id="line-A52714-4681-nodesc-highlight">
      <LineStyle>
        <color>ff1427a5</color>
        <width>7.0215</width>
      </LineStyle>
      <BalloonStyle>
        <text><![CDATA[<h3>$[name]</h3>]]></text>
      </BalloonStyle>
    </Style>
    <StyleMap id="line-A52714-4681-nodesc">
      <Pair>
        <key>normal</key>
        <styleUrl>#line-A52714-4681-nodesc-normal</styleUrl>
      </Pair>
      <Pair>
        <key>highlight</key>
        <styleUrl>#line-A52714-4681-nodesc-highlight</styleUrl>
      </Pair>
    </StyleMap>
    <Folder>
      <name>Capa sin título</name>
      <Placemark>
        <name>Terminal Ley ojo de Agua</name>
        <styleUrl>#icon-1899-0288D1-nodesc</styleUrl>
        <Point>
          <coordinates>
            -116.7903962,32.4703834,0
          </coordinates>
        </Point>
      </Placemark>
      <Placemark>
        <name>punto de control 1</name>
        <description>entrada maclovio rojas</description>
        <styleUrl>#icon-1899-0288D1</styleUrl>
        <Point>
          <coordinates>
            -116.7939173,32.4715965,0
          </coordinates>
        </Point>
      </Placemark>
      <Placemark>
        <name>punto de control 2</name>
        <description>Las vias</description>
        <styleUrl>#icon-1899-0288D1</styleUrl>
        <Point>
          <coordinates>
            -116.8068809,32.4817664,0
          </coordinates>
        </Point>
      </Placemark>
      <Placemark>
        <name>punto de control 3</name>
        <description>mercado fiesta</description>
        <styleUrl>#icon-1899-0288D1</styleUrl>
        <Point>
          <coordinates>
            -116.8083078,32.4873866,0
          </coordinates>
        </Point>
      </Placemark>
      <Placemark>
        <name>punto de control 4</name>
        <description>Ley terrazas</description>
        <styleUrl>#icon-1899-0288D1</styleUrl>
        <Point>
          <coordinates>
            -116.8206781,32.4809066,0
          </coordinates>
        </Point>
      </Placemark>
      <Placemark>
        <name>punto de control 5 </name>
        <description>Gasolinera Terrazas</description>
        <styleUrl>#icon-1899-0288D1</styleUrl>
        <Point>
          <coordinates>
            -116.8404654,32.4878106,0
          </coordinates>
        </Point>
      </Placemark>
      <Placemark>
        <name>punto de control 6</name>
        <description>plaza 2000</description>
        <styleUrl>#icon-1899-0288D1</styleUrl>
        <Point>
          <coordinates>
            -116.8555126,32.4896205,0
          </coordinates>
        </Point>
      </Placemark>
      <Placemark>
        <name>punto de control 7</name>
        <description>Iglesia de la curva</description>
        <styleUrl>#icon-1899-0288D1</styleUrl>
        <Point>
          <coordinates>
            -116.8730347,32.4760489,0
          </coordinates>
        </Point>
      </Placemark>
      <Placemark>
        <name>punto de control 8</name>
        <description>Soriana florido</description>
        <styleUrl>#icon-1899-0288D1</styleUrl>
        <Point>
          <coordinates>
            -116.8932252,32.4585512,0
          </coordinates>
        </Point>
      </Placemark>
      <Placemark>
        <name>Terminal clinica1</name>
        <description>Clinica 1</description>
        <styleUrl>#icon-1899-0288D1</styleUrl>
        <Point>
          <coordinates>
            -116.9261252,32.4773599,0
          </coordinates>
        </Point>
      </Placemark>
      <Placemark>
        <name>Línea 1</name>
        <styleUrl>#line-A52714-4681-nodesc</styleUrl>
        <LineString>
          <tessellate>1</tessellate>
          <coordinates>
            -116.7903937,32.470373,0
            -116.7904983,32.471298,0
            -116.7938457,32.4709721,0
            -116.794399,32.4751036,0
            -116.7945037,32.4763862,0
            -116.7950294,32.4767347,0
            -116.7959092,32.4772687,0
            -116.7974113,32.4777845,0
            -116.7982837,32.4780404,0
            -116.798348,32.4781943,0
            -116.8016526,32.4779454,0
            -116.8025537,32.4778503,0
            -116.8037553,32.4780043,0
            -116.8045064,32.4781309,0
            -116.8049248,32.4782034,0
            -116.8052574,32.4784025,0
            -116.8055311,32.4786197,0
            -116.8058797,32.4788505,0
            -116.8060621,32.4790587,0
            -116.8065878,32.4795293,0
            -116.8067461,32.4798257,0
            -116.8069177,32.4801425,0
            -116.8069874,32.4807805,0
            -116.8066817,32.4812647,0
            -116.8066086,32.4814839,0
            -116.80672,32.481603,0
            -116.8068802,32.481767,0
            -116.8070841,32.4819706,0
            -116.8074381,32.4818213,0
            -116.8076312,32.4817625,0
            -116.807819,32.4816765,0
            -116.8084761,32.4814978,0
            -116.8092217,32.4813665,0
            -116.8093343,32.4816561,0
            -116.8095168,32.4820092,0
            -116.8096938,32.4829097,0
            -116.809683,32.4837332,0
            -116.8088785,32.4857514,0
            -116.8088355,32.4861859,0
            -116.8086317,32.4868103,0
            -116.8083071,32.4873872,0
            -116.8086102,32.4874144,0
            -116.8090259,32.4874687,0
            -116.8100747,32.4875501,0
            -116.8130466,32.4878759,0
            -116.8141302,32.4879573,0
            -116.8147525,32.4868261,0
            -116.815482,32.4857989,0
            -116.8165978,32.4832875,0
            -116.8171986,32.4824006,0
            -116.819677,32.4811787,0
            -116.8201169,32.481043,0
            -116.8205678,32.4808124,0
            -116.821517,32.4818213,0
            -116.8230673,32.4835952,0
            -116.8243654,32.4849798,0
            -116.8251165,32.4857762,0
            -116.8262752,32.4879573,0
            -116.8282493,32.4901112,0
            -116.8297192,32.4916587,0
            -116.8313714,32.4922468,0
            -116.8329866,32.4927432,0
            -116.8338342,32.4929784,0
            -116.8342098,32.4930599,0
            -116.83495,32.4930147,0
            -116.8357547,32.4924626,0
            -116.8364735,32.4909061,0
            -116.8370851,32.4895487,0
            -116.8375196,32.4891234,0
            -116.837997,32.488698,0
            -116.83863,32.4883994,0
            -116.8404647,32.4878112,0
            -116.8412586,32.4884537,0
            -116.8424066,32.4893677,0
            -116.843179,32.4899016,0
            -116.8439515,32.4903993,0
            -116.8444933,32.490612,0
            -116.8451961,32.4907885,0
            -116.8473526,32.4906165,0
            -116.8479534,32.4905712,0
            -116.8522235,32.490146,0
            -116.8534895,32.4900917,0
            -116.8537222,32.4900826,0
            -116.853987,32.4900283,0
            -116.854506,32.4898926,0
            -116.8555119,32.4896211,0
            -116.8574698,32.48906,0
            -116.8631884,32.4874672,0
            -116.867437,32.4851685,0
            -116.8688532,32.4844083,0
            -116.870205,32.4833766,0
            -116.8709131,32.4836119,0
            -116.872222,32.4841187,0
            -116.8728014,32.4780003,0
            -116.8733378,32.4718457,0
            -116.8739064,32.4664736,0
            -116.874003,32.4642694,0
            -116.8737132,32.4620959,0
            -116.8804241,32.4615663,0
            -116.8824626,32.4614849,0
            -116.8842598,32.4610458,0
            -116.8880364,32.4601089,0
            -116.8901955,32.4595747,0
            -116.8923225,32.4589093,0
            -116.8931271,32.4585268,0
            -116.8933551,32.4583141,0
            -116.893571,32.458261,0
            -116.8938989,32.4580329,0
            -116.8941061,32.457943,0
            -116.8944749,32.457969,0
            -116.8948364,32.4581043,0
            -116.8956152,32.4584389,0
            -116.8958008,32.4584501,0
            -116.8965534,32.458811,0
            -116.8972846,32.4591267,0
            -116.8987491,32.4598396,0
            -116.8999775,32.4604212,0
            -116.9009485,32.4610933,0
            -116.9019302,32.4619601,0
            -116.9023808,32.4621841,0
            -116.9029306,32.4623334,0
            -116.9071015,32.4622679,0
            -116.9080778,32.4622634,0
            -116.9089468,32.4624127,0
            -116.9101712,32.4630214,0
            -116.9117148,32.4638611,0
            -116.9132329,32.4647142,0
            -116.9147926,32.4655471,0
            -116.9154323,32.4659007,0
            -116.9160184,32.4663176,0
            -116.9164516,32.4668392,0
            -116.9167527,32.4676494,0
            -116.9169303,32.4684482,0
            -116.9192572,32.4676584,0
            -116.920153,32.4667985,0
            -116.9205554,32.466346,0
            -116.9212956,32.4663439,0
            -116.9224007,32.4664935,0
            -116.9228245,32.4668353,0
            -116.9232482,32.4673492,0
            -116.9240958,32.4684583,0
            -116.9261985,32.4722621,0
            -116.9270997,32.4742726,0
            -116.9267403,32.4745648,0
            -116.9263809,32.474694,0
            -116.9260349,32.4744532,0
            -116.925646,32.4745201,0
            -116.9255735,32.4748042,0
            -116.9256835,32.4754504,0
            -116.9258981,32.4762156,0
            -116.9259518,32.476483,0
            -116.9259359,32.4765806,0
            -116.9259492,32.4766882,0
            -116.925958,32.4767359,0
            -116.9259908,32.476831,0
            -116.926019,32.4769807,0
            -116.9260364,32.4770625,0
            -116.9260559,32.4771825,0
            -116.9260763,32.477264,0
            -116.9261014,32.4773501,0
            -116.9261829,32.4776989,0
          </coordinates>
        </LineString>
      </Placemark>
      <Placemark>
        <name>CLINICA 1 - LEY OJO DE AGUA</name>
        <styleUrl>#line-097138-4704-nodesc</styleUrl>
        <LineString>
          <tessellate>1</tessellate>
          <coordinates>
            -116.9261039,32.477431,0
            -116.9261716,32.4777563,0
            -116.9263942,32.4788503,0
            -116.9268336,32.4810683,0
            -116.9271394,32.4836929,0
            -116.9272467,32.4841364,0
            -116.9273325,32.4846749,0
            -116.9277617,32.4853446,0
            -116.9277831,32.4854079,0
            -116.9273754,32.4856206,0
            -116.9270697,32.4857338,0
            -116.926603,32.4857881,0
            -116.9260236,32.4857745,0
            -116.9255086,32.48577,0
            -116.9249239,32.4857971,0
            -116.9246503,32.4858559,0
            -116.9243445,32.485865,0
            -116.9240978,32.4858605,0
            -116.9237544,32.4858831,0
            -116.9234862,32.4857654,0
            -116.9233414,32.4856206,0
            -116.9232985,32.4854396,0
            -116.9232287,32.4851229,0
            -116.9231322,32.4846432,0
            -116.9230678,32.4843219,0
            -116.9230517,32.4841002,0
            -116.9230624,32.4835527,0
            -116.9229927,32.4815752,0
            -116.9229873,32.4797741,0
            -116.9227728,32.4791677,0
            -116.9221612,32.4781902,0
            -116.9216945,32.4775114,0
            -116.9191571,32.473547,0
            -116.9188085,32.4730854,0
            -116.9181701,32.4720762,0
            -116.9178911,32.4715331,0
            -116.9176873,32.4710308,0
            -116.9175317,32.4704334,0
            -116.9171669,32.4686909,0
            -116.9170275,32.4680754,0
            -116.9169685,32.4674553,0
            -116.9167807,32.4670254,0
            -116.9165393,32.4665863,0
            -116.9162121,32.4661835,0
            -116.9156005,32.4657174,0
            -116.9150587,32.4654413,0
            -116.9145209,32.4649977,0
            -116.9135889,32.4645089,0
            -116.9120761,32.4636942,0
            -116.9114002,32.4634136,0
            -116.9096031,32.4624631,0
            -116.9088521,32.4621191,0
            -116.9074573,32.4620014,0
            -116.9054081,32.4620738,0
            -116.9031229,32.46211,0
            -116.9025757,32.4620104,0
            -116.90205,32.461757,0
            -116.9013634,32.4611414,0
            -116.9006123,32.4604896,0
            -116.8994858,32.4599374,0
            -116.897737,32.4591498,0
            -116.8952479,32.4579005,0
            -116.8944432,32.4575226,0
            -116.8940087,32.4572521,0
            -116.8939685,32.4570988,0
            -116.8939712,32.4569454,0
            -116.8942126,32.4567961,0
            -116.8945452,32.4568142,0
            -116.8946954,32.4568957,0
            -116.8947598,32.4571446,0
            -116.8946658,32.4573121,0
            -116.8940033,32.4576018,0
            -116.8930807,32.4582988,0
            -116.891568,32.458996,0
            -116.8859782,32.4604806,0
            -116.8814399,32.461404,0
            -116.8734684,32.4620376,0
            -116.8737473,32.4652602,0
            -116.8736079,32.4675142,0
            -116.8734147,32.4697318,0
            -116.8734255,32.4728093,0
            -116.8732002,32.4749816,0
            -116.8728783,32.4781766,0
            -116.8728032,32.4797424,0
            -116.8725886,32.4813896,0
            -116.8724062,32.4836522,0
            -116.8724277,32.48415,0
            -116.8719556,32.4840052,0
            -116.8702057,32.483376,0
            -116.8700861,32.4833366,0
            -116.8698501,32.4836126,0
            -116.8688764,32.484366,0
            -116.8680342,32.4848004,0
            -116.8641826,32.4869227,0
            -116.8631741,32.4874385,0
            -116.8602773,32.4882801,0
            -116.8538078,32.4900675,0
            -116.8524935,32.4901625,0
            -116.8506213,32.4902982,0
            -116.8488618,32.4904656,0
            -116.8472525,32.4906059,0
            -116.8451968,32.4907879,0
            -116.8443289,32.4905652,0
            -116.8437334,32.4902937,0
            -116.8431111,32.4898684,0
            -116.8405201,32.4878774,0
            -116.8404515,32.4878075,0
            -116.8386129,32.4884252,0
            -116.8382052,32.4886107,0
            -116.837941,32.4887204,0
            -116.8375387,32.4890666,0
            -116.8371336,32.489553,0
            -116.8370451,32.4897996,0
            -116.8359481,32.4921072,0
            -116.8357554,32.492462,0
            -116.8351274,32.4929081,0
            -116.8348645,32.4929986,0
            -116.834548,32.4930484,0
            -116.8341832,32.4930212,0
            -116.8335127,32.4929353,0
            -116.8326973,32.4926728,0
            -116.8311094,32.4921751,0
            -116.8298649,32.4917272,0
            -116.8295859,32.4915326,0
            -116.827762,32.4895598,0
            -116.8260347,32.4876684,0
            -116.825289,32.4862295,0
            -116.8250637,32.4857634,0
            -116.8247794,32.4854466,0
            -116.8216037,32.4819713,0
            -116.820681,32.4808762,0
            -116.8205737,32.4807676,0
            -116.8196777,32.4811781,0
            -116.8172424,32.482356,0
            -116.816722,32.4832203,0
            -116.8163358,32.4840393,0
            -116.8150001,32.4865417,0
            -116.8147372,32.4870394,0
            -116.8142169,32.4879716,0
            -116.8130045,32.4878449,0
            -116.808493,32.4874331,0
            -116.8082892,32.4874195,0
            -116.8087237,32.4866593,0
            -116.8089222,32.4857227,0
            -116.8090831,32.4855417,0
            -116.8092816,32.484881,0
            -116.8096356,32.4839669,0
            -116.8097161,32.4833968,0
            -116.8096893,32.4827813,0
            -116.8096035,32.4822791,0
            -116.8095175,32.4820086,0
            -116.8091314,32.4813514,0
            -116.8079834,32.4815957,0
            -116.807109,32.4819351,0
            -116.8066101,32.48146,0
            -116.8066824,32.4812641,0
            -116.8068247,32.4811206,0
            -116.8069856,32.4808943,0
            -116.8070768,32.4805957,0
            -116.8069856,32.4801431,0
            -116.8065885,32.4795287,0
            -116.8057518,32.4787901,0
            -116.8051564,32.4782515,0
            -116.8026404,32.4778352,0
            -116.7983487,32.4781937,0
            -116.7982416,32.4780072,0
            -116.7960851,32.4773465,0
            -116.7955755,32.4770795,0
            -116.7945402,32.476378,0
            -116.794449,32.4758983,0
            -116.7944597,32.4756268,0
            -116.7943792,32.4753236,0
            -116.794229,32.4740428,0
            -116.7938464,32.4709715,0
            -116.7906027,32.4712731,0
            -116.790499,32.4712974,0
            -116.7904364,32.4705942,0
            -116.7904149,32.4704087,0
          </coordinates>
        </LineString>
      </Placemark>
      <Placemark>
        <name>Terminal Clinica 1</name>
        <styleUrl>#icon-1899-0288D1-nodesc</styleUrl>
        <Point>
          <coordinates>
            -116.9261325,32.4775407,0
          </coordinates>
        </Point>
      </Placemark>
      <Placemark>
        <name>punto de control 1 </name>
        <description>Soriana Florido</description>
        <styleUrl>#icon-1899-0288D1</styleUrl>
        <Point>
          <coordinates>
            -116.8930807,32.4582988,0
          </coordinates>
        </Point>
      </Placemark>
      <Placemark>
        <name>Punto de control 2</name>
        <description>Iglesia de la Curva</description>
        <styleUrl>#icon-1899-0288D1</styleUrl>
        <Point>
          <coordinates>
            -116.8731149,32.4758726,0
          </coordinates>
        </Point>
      </Placemark>
      <Placemark>
        <name>punto de control 3</name>
        <description>Plaza 2000</description>
        <styleUrl>#icon-1899-0288D1</styleUrl>
        <Point>
          <coordinates>
            -116.855494,32.489601,0
          </coordinates>
        </Point>
      </Placemark>
      <Placemark>
        <name>punto de control 4</name>
        <description>Gasolinera Terrazas</description>
        <styleUrl>#icon-1899-0288D1</styleUrl>
        <Point>
          <coordinates>
            -116.8404515,32.4878075,0
          </coordinates>
        </Point>
      </Placemark>
      <Placemark>
        <name>Punto de control 5</name>
        <description>ley terrazas</description>
        <styleUrl>#icon-1899-0288D1</styleUrl>
        <Point>
          <coordinates>
            -116.8205737,32.4807676,0
          </coordinates>
        </Point>
      </Placemark>
      <Placemark>
        <name>punto de control 6</name>
        <description>mercado fiesta</description>
        <styleUrl>#icon-1899-0288D1</styleUrl>
        <Point>
          <coordinates>
            -116.8082865,32.4874218,0
          </coordinates>
        </Point>
      </Placemark>
      <Placemark>
        <name>Punto de control 7</name>
        <description>las vias</description>
        <styleUrl>#icon-1899-0288D1</styleUrl>
        <Point>
          <coordinates>
            -116.8069006,32.4817368,0
          </coordinates>
        </Point>
      </Placemark>
      <Placemark>
        <name>punto de control 8</name>
        <description>entrada maclovio rojas</description>
        <styleUrl>#icon-1899-0288D1</styleUrl>
        <Point>
          <coordinates>
            -116.7939242,32.4715992,0
          </coordinates>
        </Point>
      </Placemark>
      <Placemark>
        <name>Terminal Ley ojo de Agua</name>
        <styleUrl>#icon-1899-0288D1-nodesc</styleUrl>
        <Point>
          <coordinates>
            -116.7904149,32.4704087,0
          </coordinates>
        </Point>
      </Placemark>
    </Folder>
    <Folder>
      <name>Capa sin título</name>
    </Folder>
  </Document>
</kml>
